NORAD_CAT_ID,OBJECT_NAME,OBJECT_TYPE,EPOCH,MEAN_MOTION,ECCENTRICITY,INCLINATION,RA_OF_ASC_NODE,ARG_OF_PERICENTER,MEAN_ANOMALY,BSTAR,MEAN_MOTION_DOT,MEAN_MOTION_DDOT,TLE_LINE0,TLE_LINE1,TLE_LINE2,SEMIMAJOR_AXIS,PERIOD,APOGEE,PERIGEE,DECAYED
51728.0,STARLINK-3448,PAYLOAD,2024-05-31 20:09:28,15.08838869,0.0001096,53.2177,342.9433,71.091,289.02,-1.1164e-05,-4.65e-06,0.0,0 STARLINK-3448,1 51728U 22016Q   24152.83991176 -.00000465  00000-0 -11164-4 0  9996,2 51728  53.2177 342.9433 0001096  71.0910 289.0200 15.08838869127043,6917.884,95.438,540.507,538.991,0.0
51728.0,STARLINK-3448,PAYLOAD,2024-06-01 05:41:46,15.08851724,0.0001171,53.219,341.1593,71.9543,288.1577,5.38e-05,5.69e-06,0.0,0 STARLINK-3448,1 51728U 22016Q   24153.23734059  .00000569  00000-0  53800-4 0  9992,2 51728  53.2190 341.1593 0001171  71.9543 288.1577 15.08851724127100,6917.845,95.437,540.52,538.899,0.0
51728.0,STARLINK-3448,PAYLOAD,2024-06-01 18:24:52,15.08834745,0.0001506,53.2171,338.7808,78.7488,281.3673,-5.3611e-05,-1.141e-05,0.0,0 STARLINK-3448,1 51728U 22016Q   24153.76727634 -.00001141  00000-0 -53611-4 0  9990,2 51728  53.2171 338.7808 0001506  78.7488 281.3673 15.08834745127189,6917.896,95.438,540.803,538.72,0.0
51728.0,STARLINK-3448,PAYLOAD,2024-06-02 05:32:33,15.08843319,0.0001347,53.2175,336.7005,84.6133,275.5013,9.2424e-06,-1.41e-06,0.0,0 STARLINK-3448,1 51728U 22016Q   24154.23094864 -.00000141  00000-0  92424-5 0  9999,2 51728  53.2175 336.7005 0001347  84.6133 275.5013 15.08843319127254,6917.87,95.437,540.667,538.803,0.0
51728.0,STARLINK-3448,PAYLOAD,2024-06-03 11:44:53,15.08837208,0.0001544,53.2163,331.0508,87.6001,272.5168,0.00011795,1.59e-05,0.0,0 STARLINK-3448,1 51728U 22016Q   24155.48951177  .00001590  00000-0  11795-3 0  9994,2 51728  53.2163 331.0508 0001544  87.6001 272.5168 15.08837208127442,6917.889,95.438,540.822,538.686,0.0
51728.0,STARLINK-3448,PAYLOAD,2024-06-03 18:06:26,15.08815657,0.0001125,53.2148,329.8585,103.5129,256.5988,0.00046045,7.043e-05,0.0,0 STARLINK-3448,1 51728U 22016Q   24155.75447910  .00007043  00000-0  46045-3 0  9994,2 51728  53.2148 329.8585 0001125 103.5129 256.5988 15.08815657127489,6917.955,95.439,540.598,539.042,0.0
51728.0,STARLINK-3448,PAYLOAD,2024-06-04 17:57:13,15.08826354,0.0002242,53.2106,325.3983,96.9054,263.2193,0.00028139,4.191e-05,0.0,0 STARLINK-3448,1 51728U 22016Q   24156.74807718  .00004191  00000-0  28139-3 0  9995,2 51728  53.2106 325.3983 0002242  96.9054 263.2193 15.08826354127635,6917.922,95.438,541.338,538.236,0.0
51728.0,STARLINK-3448,PAYLOAD,2024-06-05 11:26:28,15.08835811,0.0002255,53.2106,322.1272,95.5165,264.6085,-5.4634e-06,-3.75e-06,0.0,0 STARLINK-3448,1 51728U 22016Q   24157.47671588 -.00000375  00000-0 -54634-5 0  9993,2 51728  53.2106 322.1272 0002255  95.5165 264.6085 15.08835811126613,6917.893,95.438,541.318,538.198,0.0
51728.0,STARLINK-3448,PAYLOAD,2024-06-05 17:48:00,15.08842433,0.0002316,53.2125,320.9363,97.0031,263.1225,-0.00014903,-2.66e-05,0.0,0 STARLINK-3448,1 51728U 22016Q   24157.74167656 -.00002660  00000-0 -14903-3 0  9991,2 51728  53.2125 320.9363 0002316  97.0031 263.1225 15.08842433126650,6917.873,95.437,541.34,538.136,0.0
51728.0,STARLINK-3448,PAYLOAD,2024-06-06 17:38:48,15.08832119,0.0001406,53.2223,316.4792,81.2396,278.8755,4.4312e-05,4.17e-06,0.0,0 STARLINK-3448,1 51728U 22016Q   24158.73528224  .00000417  00000-0  44312-4 0  9997,2 51728  53.2223 316.4792 0001406  81.2396 278.8755 15.08832119127936,6917.904,95.438,540.742,538.797,0.0
51728.0,STARLINK-3448,PAYLOAD,2024-06-07 09:32:39,15.08837657,9.56e-05,53.2162,313.5046,89.8497,270.2605,3.0522e-05,1.98e-06,0.0,0 STARLINK-3448,1 51728U 22016Q   24159.39768026  .00000198  00000-0  30522-4 0  9990,2 51728  53.2162 313.5046 0000956  89.8497 270.2605 15.08837657126901,6917.888,95.438,540.414,539.091,0.0
51728.0,STARLINK-3448,PAYLOAD,2024-06-07 20:40:21,15.08833691,9.38e-05,53.2126,311.422,78.0056,282.1041,0.00013074,1.793e-05,0.0,0 STARLINK-3448,1 51728U 22016Q   24159.86136341  .00001793  00000-0  13074-3 0  9995,2 51728  53.2126 311.4220 0000938  78.0056 282.1041 15.08833691128107,6917.9,95.438,540.414,539.116,0.0
51728.0,STARLINK-3448,PAYLOAD,2024-06-08 03:01:54,15.08842446,0.0001541,53.2197,310.2369,305.6723,54.4125,0.00011507,1.544e-05,0.0,0 STARLINK-3448,1 51728U 22016Q   24160.12632021  .00001544  00000-0  11507-3 0  9995,2 51728  53.2197 310.2369 0001541 305.6723  54.4125 15.08842446127017,6917.873,95.437,540.804,538.672,0.0
51728.0,STARLINK-3448,PAYLOAD,2024-06-08 18:55:45,15.08840369,0.0001504,53.2206,307.2637,86.6871,273.4293,7.1046e-05,8.43e-06,0.0,0 STARLINK-3448,1 51728U 22016Q   24160.78872354  .00000843  00000-0  71046-4 0  9998,2 51728  53.2206 307.2637 0001504  86.6871 273.4293 15.08840369127113,6917.879,95.438,540.785,538.704,0.0
51728.0,STARLINK-3448,PAYLOAD,2024-06-09 02:52:40,15.08856717,0.0001561,53.2139,305.7724,73.0546,287.0617,0.00021196,3.088e-05,0.0,0 STARLINK-3448,1 51728U 22016Q   24161.11990756  .00003088  00000-0  21196-3 0  9997,2 51728  53.2139 305.7724 0001561  73.0546 287.0617 15.08856717128295,6917.829,95.436,540.774,538.614,0.0
51728.0,STARLINK-3448,PAYLOAD,2024-06-09 09:14:14,15.08828987,0.0001583,53.2182,304.5859,81.3882,278.7289,-4.7275e-05,-1.04e-05,0.0,0 STARLINK-3448,1 51728U 22016Q   24161.38489204 -.00001040  00000-0 -47275-4 0  9992,2 51728  53.2182 304.5859 0001583  81.3882 278.7289 15.08828987128333,6917.914,95.438,540.874,538.684,0.0
51728.0,STARLINK-3448,PAYLOAD,2024-06-09 15:35:47,15.0883003,0.0001129,53.2149,303.3951,67.0172,293.094,2.1837e-06,-2.53e-06,0.0,0 STARLINK-3448,1 51728U 22016Q   24161.64985081 -.00000253  00000-0  21837-5 0  9996,2 51728  53.2149 303.3951 0001129  67.0172 293.0940 15.08830030127240,6917.911,95.438,540.557,538.995,0.0
51728.0,STARLINK-3448,PAYLOAD,2024-06-09 18:46:33,15.08832158,0.0001172,53.2145,302.8,66.7994,293.3121,1.8334e-05,4e-08,0.0,0 STARLINK-3448,1 51728U 22016Q   24161.78232968  .00000004  00000-0  18334-4 0  9990,2 51728  53.2145 302.8000 0001172  66.7994 293.3121 15.08832158127260,6917.904,95.438,540.58,538.959,0.0
51728.0,STARLINK-3448,PAYLOAD,2024-06-10 02:43:27,15.08848372,0.0001358,53.2156,301.3143,80.5012,279.6134,5.73e-05,6.24e-06,0.0,0 STARLINK-3448,1 51728U 22016Q   24162.11351711  .00000624  00000-0  57300-4 0  9990,2 51728  53.2156 301.3143 0001358  80.5012 279.6134 15.08848372128442,6917.855,95.437,540.659,538.78,0.0
51728.0,STARLINK-3448,PAYLOAD,2024-06-10 09:05:01,15.08847194,0.0003939,53.2114,300.1247,83.564,276.58,5.7621e-05,6.28e-06,0.0,0 STARLINK-3448,1 51728U 22016Q   24162.37848747  .00000628  00000-0  57621-4 0  9998,2 51728  53.2114 300.1247 0003939  83.5640 276.5800 15.08847194128486,6917.858,95.437,542.448,536.998,0.0
51728.0,STARLINK-3448,PAYLOAD,2024-06-10 15:26:33,15.08836474,0.0001559,53.2139,298.9339,85.612,274.505,2.7651e-05,1.52e-06,0.0,0 STARLINK-3448,1 51728U 22016Q   24162.64344696  .00000152  00000-0  27651-4 0  9994,2 51728  53.2139 298.9339 0001559  85.6120 274.5050 15.08836474127394,6917.891,95.438,540.835,538.678,0.0
51728.0,STARLINK-3448,PAYLOAD,2024-06-11 02:34:14,15.08857648,0.0001703,53.2174,296.8522,79.1689,280.9494,2.3445e-05,8.5e-07,0.0,0 STARLINK-3448,1 51728U 22016Q   24163.10711289  .00000085  00000-0  23445-4 0  9994,2 51728  53.2174 296.8522 0001703  79.1689 280.9494 15.08857648128595,6917.826,95.436,540.87,538.513,0.0
51728.0,STARLINK-3448,PAYLOAD,2024-06-11 13:41:57,15.08826907,0.0001043,53.22,294.7701,98.3819,261.7291,0.00026697,3.962e-05,0.0,0 STARLINK-3448,1 51728U 22016Q   24163.57080493  .00003962  00000-0  26697-3 0  9999,2 51728  53.2200 294.7701 0001043  98.3819 261.7291 15.08826907127535,6917.92,95.438,540.507,539.064,0.0
51728.0,STARLINK-3448,PAYLOAD,2024-06-11 18:28:06,15.08840684,0.000167,53.2178,293.8752,114.4742,245.6424,0.00010863,1.441e-05,0.0,0 STARLINK-3448,1 51728U 22016Q   24163.76951963  .00001441  00000-0  10863-3 0  9997,2 51728  53.2178 293.8752 0001670 114.4742 245.6424 15.08840684128691,6917.878,95.438,540.899,538.588,0.0
51728.0,STARLINK-3448,PAYLOAD,2024-06-12 11:57:21,15.0882723,0.0001236,53.2167,290.6029,118.9665,241.1451,0.00010316,1.354e-05,0.0,0 STARLINK-3448,1 51728U 22016Q   24164.49816793  .00001354  00000-0  10316-3 0  9995,2 51728  53.2167 290.6029 0001236 118.9665 241.1451 15.08827230128808,6917.919,95.438,540.639,538.929,0.0
51728.0,STARLINK-3448,PAYLOAD,2024-06-12 15:08:08,15.08834476,0.0001047,53.2162,290.0092,110.0368,250.0737,-4.334e-05,-9.77e-06,0.0,0 STARLINK-3448,1 51728U 22016Q   24164.63064816 -.00000977  00000-0 -43340-4 0  9998,2 51728  53.2162 290.0092 0001047 110.0368 250.0737 15.08834476127692,6917.897,95.438,540.487,539.038,0.0
51728.0,STARLINK-3448,PAYLOAD,2024-06-13 13:23:31,15.08836986,0.0001032,53.2156,285.8455,110.6177,249.4926,5.9657e-05,6.62e-06,0.0,0 STARLINK-3448,1 51728U 22016Q   24165.55800562  .00000662  00000-0  59657-4 0  9993,2 51728  53.2156 285.8455 0001032 110.6177 249.4926 15.08836986128969,6917.89,95.438,540.469,539.041,0.0
51728.0,STARLINK-3448,PAYLOAD,2024-06-13 14:58:54,15.08836969,9.9e-05,53.2167,285.5532,89.3813,270.7293,8.2241e-05,1.021e-05,0.0,0 STARLINK-3448,1 51728U 22016Q   24165.62424601  .00001021  00000-0  82241-4 0  9992,2 51728  53.2167 285.5532 0000990  89.3813 270.7293 15.08836969127846,6917.89,95.438,540.44,539.07,0.0
51728.0,STARLINK-3448,PAYLOAD,2024-06-14 14:49:42,15.08825557,0.0001398,53.2188,281.1001,105.9078,254.2068,9.9523e-05,1.296e-05,0.0,0 STARLINK-3448,1 51728U 22016Q   24166.61785611  .00001296  00000-0  99523-4 0  9998,2 51728  53.2188 281.1001 0001398 105.9078 254.2068 15.08825557127997,6917.925,95.438,540.757,538.822,0.0
51728.0,STARLINK-3448,PAYLOAD,2024-06-15 14:40:29,15.08837568,0.000125,53.218,276.6353,95.3202,264.7933,2.7275e-05,1.46e-06,0.0,0 STARLINK-3448,1 51728U 22016Q   24167.61145200  .00000146  00000-0  27275-4 0  9991,2 51728  53.2180 276.6353 0001250  95.3202 264.7933 15.08837568128146,6917.888,95.438,540.618,538.888,0.0
